CTC2_L_00548001-01
1 33175U 24028TQ  26037.47798611  .00000000  00000+0  00000-0 0  9995
2 33175  98.4000   0.0000 0000000   0.0000   0.0000 14.41059303    13
CTC2_L_00548002-01
1 33176U 26344RF  26037.47798611  .00000000  00000+0  00000-0 0  9999
2 33176  98.4000  12.0000 0000000   0.0000  48.0000 14.41059303    19
CTC2_L_00548003-01
1 33177U 24304FE  26037.47798611  .00000000  00000+0  00000-0 0  9994
2 33177  98.4000  24.0000 0000000   0.0000  96.0000 14.41059303    16
CTC2_L_00548004-01
1 33178U 22716RV  26037.47798611  .00000000  00000+0  00000-0 0  9990
2 33178  98.4000  36.0000 0000000   0.0000 144.0000 14.41059303    14
CTC2_L_00548005-01
1 33179U 24746MX  26037.47798611  .00000000  00000+0  00000-0 0  9996
2 33179  98.4000  48.0000 0000000   0.0000 192.0000 14.41059303    11
CTC2_L_00548006-01
1 33180U 25513GD  26037.47798611  .00000000  00000+0  00000-0 0  9991
2 33180  98.4000  60.0000 0000000   0.0000 240.0000 14.41059303    11
CTC2_L_00548007-01
1 33181U 22324RT  26037.47798611  .00000000  00000+0  00000-0 0  9999
2 33181  98.4000  72.0000 0000000   0.0000 288.0000 14.41059303    17
CTC2_L_00548008-01
1 33182U 26561WI  26037.47798611  .00000000  00000+0  00000-0 0  9997
2 33182  98.4000  84.0000 0000000   0.0000 336.0000 14.41059303    15
CTC2_L_00548009-01
1 33183U 23798HE  26037.47798611  .00000000  00000+0  00000-0 0  9997
2 33183  98.4000  96.0000 0000000   0.0000  24.0000 14.41059303    13
CTC2_L_00548010-01
1 33184U 23866FM  26037.47798611  .00000000  00000+0  00000-0 0  9994
2 33184  98.4000 108.0000 0000000   0.0000  72.0000 14.41059303    11
CTC2_L_00548011-01
1 33185U 26519QP  26037.47798611  .00000000  00000+0  00000-0 0  9993
2 33185  98.4000 120.0000 0000000   0.0000 120.0000 14.41059303    10
CTC2_L_00548012-01
1 33186U 25339GN  26037.47798611  .00000000  00000+0  00000-0 0  9993
2 33186  98.4000 132.0000 0000000   0.0000 168.0000 14.41059303    16
CTC2_L_00548013-01
1 33187U 22455KU  26037.47798611  .00000000  00000+0  00000-0 0  9990
2 33187  98.4000 144.0000 0000000   0.0000 216.0000 14.41059303    14
CTC2_L_00548014-01
1 33188U 24269LZ  26037.47798611  .00000000  00000+0  00000-0 0  9996
2 33188  98.4000 156.0000 0000000   0.0000 264.0000 14.41059303    11
CTC2_L_00548015-01
1 33189U 26086VF  26037.47798611  .00000000  00000+0  00000-0 0  9996
2 33189  98.4000 168.0000 0000000   0.0000 312.0000 14.41059303    19
CTC2_L_00548016-01
1 33190U 22786LM  26037.47798611  .00000000  00000+0  00000-0 0  9991
2 33190  98.4000 180.0000 0000000   0.0000   0.0000 14.41059303    19
CTC2_L_00548017-01
1 33191U 26790AH  26037.47798611  .00000000  00000+0  00000-0 0  9991
2 33191  98.4000 192.0000 0000000   0.0000  48.0000 14.41059303    15
CTC2_L_00548018-01
1 33192U 26407KK  26037.47798611  .00000000  00000+0  00000-0 0  9997
2 33192  98.4000 204.0000 0000000   0.0000  96.0000 14.41059303    13
CTC2_L_00548019-01
1 33193U 26162FI  26037.47798611  .00000000  00000+0  00000-0 0  9996
2 33193  98.4000 216.0000 0000000   0.0000 144.0000 14.41059303    11
CTC2_L_00548020-01
1 33194U 25398QB  26037.47798611  .00000000  00000+0  00000-0 0  9997
2 33194  98.4000 228.0000 0000000   0.0000 192.0000 14.41059303    18
CTC2_L_00548021-01
1 33195U 22519NS  26037.47798611  .00000000  00000+0  00000-0 0  9990
2 33195  98.4000 240.0000 0000000   0.0000 240.0000 14.41059303    17
CTC2_L_00548022-01
1 33196U 22217WS  26037.47798611  .00000000  00000+0  00000-0 0  9996
2 33196  98.4000 252.0000 0000000   0.0000 288.0000 14.41059303    13
CTC2_L_00548023-01
1 33197U 24534LC  26037.47798611  .00000000  00000+0  00000-0 0  9991
2 33197  98.4000 264.0000 0000000   0.0000 336.0000 14.41059303    11
CTC2_L_00548024-01
1 33198U 26816DO  26037.47798611  .00000000  00000+0  00000-0 0  9997
2 33198  98.4000 276.0000 0000000   0.0000  24.0000 14.41059303    19
CTC2_L_00548025-01
1 33199U 24874SU  26037.47798611  .00000000  00000+0  00000-0 0  9990
2 33199  98.4000 288.0000 0000000   0.0000  72.0000 14.41059303    16
CTC2_L_00548026-01
1 33200U 25640TA  26037.47798611  .00000000  00000+0  00000-0 0  9995
2 33200  98.4000 300.0000 0000000   0.0000 120.0000 14.41059303    18
CTC2_L_00548027-01
1 33201U 24258GP  26037.47798611  .00000000  00000+0  00000-0 0  9990
2 33201  98.4000 312.0000 0000000   0.0000 168.0000 14.41059303    14
CTC2_L_00548028-01
1 33202U 23559IP  26037.47798611  .00000000  00000+0  00000-0 0  9994
2 33202  98.4000 324.0000 0000000   0.0000 216.0000 14.41059303    12
CTC2_L_00548029-01
1 33203U 25726H   26037.47798611  .00000000  00000+0  00000-0 0  9993
2 33203  98.4000 336.0000 0000000   0.0000 264.0000 14.41059303    19
CTC2_L_00548030-01
1 33204U 25144ND  26037.47798611  .00000000  00000+0  00000-0 0  9998
2 33204  98.4000 348.0000 0000000   0.0000 312.0000 14.41059303    17
